[{"OBJECT_NAME":"STARLINK-3555","OBJECT_ID":"2022-022M","EPOCH":"2025-07-29T05:05:51.910368","MEAN_MOTION":15.08838892,"ECCENTRICITY":0.0001165,"INCLINATION":53.2182,"RA_OF_ASC_NODE":292.3513,"ARG_OF_PERICENTER":85.5856,"MEAN_ANOMALY":274.5269,"EPHEMERIS_TYPE":0,"CLASSIFICATION_TYPE":"U","NORAD_CAT_ID":51863,"ELEMENT_SET_NO":999,"REV_AT_EPOCH":18937,"BSTAR":4.7564e-5,"MEAN_MOTION_DOT":4.69e-6,"MEAN_MOTION_DDOT":0},{"OBJECT_NAME":"STARLINK-3548","OBJECT_ID":"2022-022N","EPOCH":"2025-07-29T13:08:04.562592","MEAN_MOTION":15.08843496,"ECCENTRICITY":0.0001315,"INCLINATION":53.2177,"RA_OF_ASC_NODE":290.7692,"ARG_OF_PERICENTER":87.0296,"MEAN_ANOMALY":273.0847,"EPHEMERIS_TYPE":0,"CLASSIFICATION_TYPE":"U","NORAD_CAT_ID":51864,"ELEMENT_SET_NO":999,"REV_AT_EPOCH":18947,"BSTAR":3.0449e-5,"MEAN_MOTION_DOT":1.97e-6,"MEAN_MOTION_DDOT":0},{"OBJECT_NAME":"STARLINK-3503","OBJECT_ID":"2022-022P","EPOCH":"2025-07-29T12:52:11.334720","MEAN_MOTION":15.08843835,"ECCENTRICITY":0.0001204,"INCLINATION":53.2176,"RA_OF_ASC_NODE":290.8978,"ARG_OF_PERICENTER":87.282,"MEAN_ANOMALY":272.831,"EPHEMERIS_TYPE":0,"CLASSIFICATION_TYPE":"U","NORAD_CAT_ID":51865,"ELEMENT_SET_NO":999,"REV_AT_EPOCH":18942,"BSTAR":9.2551e-5,"MEAN_MOTION_DOT":1.186e-5,"MEAN_MOTION_DDOT":0},{"OBJECT_NAME":"STARLINK-3553","OBJECT_ID":"2022-022Q","EPOCH":"2025-07-29T12:48:14.954688","MEAN_MOTION":15.08841836,"ECCENTRICITY":0.0001345,"INCLINATION":53.2189,"RA_OF_ASC_NODE":290.7648,"ARG_OF_PERICENTER":88.35,"MEAN_ANOMALY":271.7646,"EPHEMERIS_TYPE":0,"CLASSIFICATION_TYPE":"U","NORAD_CAT_ID":51866,"ELEMENT_SET_NO":999,"REV_AT_EPOCH":18942,"BSTAR":7.9383e-5,"MEAN_MOTION_DOT":9.76e-6,"MEAN_MOTION_DDOT":0},{"OBJECT_NAME":"STARLINK-3590","OBJECT_ID":"2022-022R","EPOCH":"2025-07-29T12:46:53.420736","MEAN_MOTION":15.08841476,"ECCENTRICITY":0.0001116,"INCLINATION":53.2181,"RA_OF_ASC_NODE":290.9152,"ARG_OF_PERICENTER":91.4665,"MEAN_ANOMALY":268.6455,"EPHEMERIS_TYPE":0,"CLASSIFICATION_TYPE":"U","NORAD_CAT_ID":51867,"ELEMENT_SET_NO":999,"REV_AT_EPOCH":18942,"BSTAR":5.3132e-5,"MEAN_MOTION_DOT":5.58e-6,"MEAN_MOTION_DDOT":0},{"OBJECT_NAME":"STARLINK-3578","OBJECT_ID":"2022-022S","EPOCH":"2025-07-28T22:39:01.310688","MEAN_MOTION":15.08840103,"ECCENTRICITY":0.0001154,"INCLINATION":53.2176,"RA_OF_ASC_NODE":293.5557,"ARG_OF_PERICENTER":87.2247,"MEAN_ANOMALY":272.8877,"EPHEMERIS_TYPE":0,"CLASSIFICATION_TYPE":"U","NORAD_CAT_ID":51868,"ELEMENT_SET_NO":999,"REV_AT_EPOCH":18933,"BSTAR":2.7785e-6,"MEAN_MOTION_DOT":-2.44e-6,"MEAN_MOTION_DDOT":0},{"OBJECT_NAME":"STARLINK-3588","OBJECT_ID":"2022-022T","EPOCH":"2025-07-29T12:30:59.312448","MEAN_MOTION":15.0884672,"ECCENTRICITY":0.0001389,"INCLINATION":53.2179,"RA_OF_ASC_NODE":290.965,"ARG_OF_PERICENTER":94.7377,"MEAN_ANOMALY":265.3774,"EPHEMERIS_TYPE":0,"CLASSIFICATION_TYPE":"U","NORAD_CAT_ID":51869,"ELEMENT_SET_NO":999,"REV_AT_EPOCH":18942,"BSTAR":-1.3871e-5,"MEAN_MOTION_DOT":-5.09e-6,"MEAN_MOTION_DDOT":0},{"OBJECT_NAME":"STARLINK-3591","OBJECT_ID":"2022-022U","EPOCH":"2025-07-29T04:44:40.125696","MEAN_MOTION":15.08839018,"ECCENTRICITY":0.0001105,"INCLINATION":53.2182,"RA_OF_ASC_NODE":292.4188,"ARG_OF_PERICENTER":99.7582,"MEAN_ANOMALY":260.3534,"EPHEMERIS_TYPE":0,"CLASSIFICATION_TYPE":"U","NORAD_CAT_ID":51870,"ELEMENT_SET_NO":999,"REV_AT_EPOCH":18942,"BSTAR":3.5111e-5,"MEAN_MOTION_DOT":2.71e-6,"MEAN_MOTION_DDOT":0},{"OBJECT_NAME":"STARLINK-3567","OBJECT_ID":"2022-022V","EPOCH":"2025-07-29T12:25:41.216160","MEAN_MOTION":15.08843641,"ECCENTRICITY":0.0001099,"INCLINATION":53.2172,"RA_OF_ASC_NODE":290.9795,"ARG_OF_PERICENTER":78.375,"MEAN_ANOMALY":281.7366,"EPHEMERIS_TYPE":0,"CLASSIFICATION_TYPE":"U","NORAD_CAT_ID":51871,"ELEMENT_SET_NO":999,"REV_AT_EPOCH":18946,"BSTAR":4.6061e-5,"MEAN_MOTION_DOT":4.45e-6,"MEAN_MOTION_DDOT":0},{"OBJECT_NAME":"STARLINK-3554","OBJECT_ID":"2022-022W","EPOCH":"2025-07-29T12:36:17.863200","MEAN_MOTION":15.08839113,"ECCENTRICITY":0.0001045,"INCLINATION":53.2179,"RA_OF_ASC_NODE":290.9479,"ARG_OF_PERICENTER":82.4907,"MEAN_ANOMALY":277.6204,"EPHEMERIS_TYPE":0,"CLASSIFICATION_TYPE":"U","NORAD_CAT_ID":51872,"ELEMENT_SET_NO":999,"REV_AT_EPOCH":18942,"BSTAR":7.2029e-5,"MEAN_MOTION_DOT":8.59e-6,"MEAN_MOTION_DDOT":0},{"OBJECT_NAME":"STARLINK-3582","OBJECT_ID":"2022-022X","EPOCH":"2025-07-28T12:20:24.092736","MEAN_MOTION":15.08838557,"ECCENTRICITY":0.0001074,"INCLINATION":53.2176,"RA_OF_ASC_NODE":295.4947,"ARG_OF_PERICENTER":89.8877,"MEAN_ANOMALY":270.2239,"EPHEMERIS_TYPE":0,"CLASSIFICATION_TYPE":"U","NORAD_CAT_ID":51873,"ELEMENT_SET_NO":999,"REV_AT_EPOCH":18927,"BSTAR":-7.7517e-5,"MEAN_MOTION_DOT":-1.521e-5,"MEAN_MOTION_DDOT":0},{"OBJECT_NAME":"STARLINK-3574","OBJECT_ID":"2022-022Y","EPOCH":"2025-07-29T10:45:00.310464","MEAN_MOTION":15.08841982,"ECCENTRICITY":0.0001138,"INCLINATION":53.2176,"RA_OF_ASC_NODE":291.2929,"ARG_OF_PERICENTER":86.1547,"MEAN_ANOMALY":273.9575,"EPHEMERIS_TYPE":0,"CLASSIFICATION_TYPE":"U","NORAD_CAT_ID":51874,"ELEMENT_SET_NO":999,"REV_AT_EPOCH":18940,"BSTAR":2.8605e-5,"MEAN_MOTION_DOT":1.67e-6,"MEAN_MOTION_DDOT":0},{"OBJECT_NAME":"STARLINK-3585","OBJECT_ID":"2022-022Z","EPOCH":"2025-07-29T11:48:34.804800","MEAN_MOTION":15.08844964,"ECCENTRICITY":0.0001208,"INCLINATION":53.2176,"RA_OF_ASC_NODE":291.0074,"ARG_OF_PERICENTER":85.8551,"MEAN_ANOMALY":274.2579,"EPHEMERIS_TYPE":0,"CLASSIFICATION_TYPE":"U","NORAD_CAT_ID":51875,"ELEMENT_SET_NO":999,"REV_AT_EPOCH":18942,"BSTAR":7.2505e-5,"MEAN_MOTION_DOT":8.66e-6,"MEAN_MOTION_DDOT":0},{"OBJECT_NAME":"STARLINK-3583","OBJECT_ID":"2022-022AA","EPOCH":"2025-07-29T05:53:33.659808","MEAN_MOTION":15.08847474,"ECCENTRICITY":0.0001267,"INCLINATION":53.2179,"RA_OF_ASC_NODE":292.2022,"ARG_OF_PERICENTER":90.3496,"MEAN_ANOMALY":269.7641,"EPHEMERIS_TYPE":0,"CLASSIFICATION_TYPE":"U","NORAD_CAT_ID":51876,"ELEMENT_SET_NO":999,"REV_AT_EPOCH":18938,"BSTAR":1.3063e-5,"MEAN_MOTION_DOT":-8.0e-7,"MEAN_MOTION_DDOT":0},{"OBJECT_NAME":"STARLINK-3556","OBJECT_ID":"2022-022AB","EPOCH":"2025-07-29T11:49:55.352928","MEAN_MOTION":15.08839348,"ECCENTRICITY":0.0001198,"INCLINATION":53.2175,"RA_OF_ASC_NODE":281.0922,"ARG_OF_PERICENTER":91.9928,"MEAN_ANOMALY":268.1201,"EPHEMERIS_TYPE":0,"CLASSIFICATION_TYPE":"U","NORAD_CAT_ID":51877,"ELEMENT_SET_NO":999,"REV_AT_EPOCH":18955,"BSTAR":1.1675e-5,"MEAN_MOTION_DOT":-1.02e-6,"MEAN_MOTION_DDOT":0},{"OBJECT_NAME":"STARLINK-3575","OBJECT_ID":"2022-022AC","EPOCH":"2025-07-28T12:13:43.254624","MEAN_MOTION":15.08838772,"ECCENTRICITY":0.000112,"INCLINATION":53.2177,"RA_OF_ASC_NODE":295.5057,"ARG_OF_PERICENTER":88.5879,"MEAN_ANOMALY":271.5242,"EPHEMERIS_TYPE":0,"CLASSIFICATION_TYPE":"U","NORAD_CAT_ID":51878,"ELEMENT_SET_NO":999,"REV_AT_EPOCH":18927,"BSTAR":-2.3993e-5,"MEAN_MOTION_DOT":-6.7e-6,"MEAN_MOTION_DDOT":0},{"OBJECT_NAME":"STARLINK-3572","OBJECT_ID":"2022-022AD","EPOCH":"2025-07-28T11:48:32.890176","MEAN_MOTION":15.0883571,"ECCENTRICITY":0.0001219,"INCLINATION":53.2182,"RA_OF_ASC_NODE":285.5852,"ARG_OF_PERICENTER":88.3687,"MEAN_ANOMALY":271.7445,"EPHEMERIS_TYPE":0,"CLASSIFICATION_TYPE":"U","NORAD_CAT_ID":51879,"ELEMENT_SET_NO":999,"REV_AT_EPOCH":18940,"BSTAR":-1.039e-5,"MEAN_MOTION_DOT":-4.53e-6,"MEAN_MOTION_DDOT":0},{"OBJECT_NAME":"STARLINK-3566","OBJECT_ID":"2022-022AE","EPOCH":"2025-07-28T12:18:58.128192","MEAN_MOTION":15.08839086,"ECCENTRICITY":0.0001242,"INCLINATION":53.2176,"RA_OF_ASC_NODE":295.2113,"ARG_OF_PERICENTER":72.7425,"MEAN_ANOMALY":287.3703,"EPHEMERIS_TYPE":0,"CLASSIFICATION_TYPE":"U","NORAD_CAT_ID":51880,"ELEMENT_SET_NO":999,"REV_AT_EPOCH":18927,"BSTAR":-3.5606e-5,"MEAN_MOTION_DOT":-8.54e-6,"MEAN_MOTION_DDOT":0},{"OBJECT_NAME":"STARLINK-3504","OBJECT_ID":"2022-022AF","EPOCH":"2025-07-29T05:07:11.068320","MEAN_MOTION":15.08840501,"ECCENTRICITY":0.0001698,"INCLINATION":53.2187,"RA_OF_ASC_NODE":282.3437,"ARG_OF_PERICENTER":95.6221,"MEAN_ANOMALY":264.4965,"EPHEMERIS_TYPE":0,"CLASSIFICATION_TYPE":"U","NORAD_CAT_ID":51881,"ELEMENT_SET_NO":999,"REV_AT_EPOCH":18956,"BSTAR":2.6354e-5,"MEAN_MOTION_DOT":1.31e-6,"MEAN_MOTION_DDOT":0},{"OBJECT_NAME":"STARLINK-3570","OBJECT_ID":"2022-022AG","EPOCH":"2025-07-29T11:46:00.535008","MEAN_MOTION":15.08838592,"ECCENTRICITY":0.0001134,"INCLINATION":53.2169,"RA_OF_ASC_NODE":281.1137,"ARG_OF_PERICENTER":81.7547,"MEAN_ANOMALY":278.3573,"EPHEMERIS_TYPE":0,"CLASSIFICATION_TYPE":"U","NORAD_CAT_ID":51882,"ELEMENT_SET_NO":999,"REV_AT_EPOCH":18960,"BSTAR":1.4344e-5,"MEAN_MOTION_DOT":-6.0e-7,"MEAN_MOTION_DDOT":0},{"OBJECT_NAME":"STARLINK-3576","OBJECT_ID":"2022-022AH","EPOCH":"2025-07-29T11:44:39.653376","MEAN_MOTION":15.08837757,"ECCENTRICITY":0.0001058,"INCLINATION":53.2175,"RA_OF_ASC_NODE":281.2909,"ARG_OF_PERICENTER":92.0539,"MEAN_ANOMALY":268.0574,"EPHEMERIS_TYPE":0,"CLASSIFICATION_TYPE":"U","NORAD_CAT_ID":51883,"ELEMENT_SET_NO":999,"REV_AT_EPOCH":18954,"BSTAR":3.4362e-5,"MEAN_MOTION_DOT":2.59e-6,"MEAN_MOTION_DDOT":0},{"OBJECT_NAME":"STARLINK-3577","OBJECT_ID":"2022-022AJ","EPOCH":"2025-07-28T11:43:14.851776","MEAN_MOTION":15.08836212,"ECCENTRICITY":8.89e-5,"INCLINATION":53.2184,"RA_OF_ASC_NODE":285.601,"ARG_OF_PERICENTER":90.8007,"MEAN_ANOMALY":269.3087,"EPHEMERIS_TYPE":0,"CLASSIFICATION_TYPE":"U","NORAD_CAT_ID":51884,"ELEMENT_SET_NO":999,"REV_AT_EPOCH":18948,"BSTAR":2.3546e-5,"MEAN_MOTION_DOT":8.7e-7,"MEAN_MOTION_DDOT":0},{"OBJECT_NAME":"STARLINK-3584","OBJECT_ID":"2022-022AK","EPOCH":"2025-07-29T11:12:49.605984","MEAN_MOTION":15.08844141,"ECCENTRICITY":0.0001176,"INCLINATION":53.2173,"RA_OF_ASC_NODE":281.2057,"ARG_OF_PERICENTER":82.3019,"MEAN_ANOMALY":277.8106,"EPHEMERIS_TYPE":0,"CLASSIFICATION_TYPE":"U","NORAD_CAT_ID":51885,"ELEMENT_SET_NO":999,"REV_AT_EPOCH":18954,"BSTAR":6.1073e-5,"MEAN_MOTION_DOT":6.84e-6,"MEAN_MOTION_DDOT":0}]
